[{"OBJECT_NAME":"STARLINK-31659","OBJECT_ID":"2024-050A","EPOCH":"2026-03-09T12:32:24.838080","MEAN_MOTION":15.30203311,"ECCENTRICITY":0.00014462,"INCLINATION":53.1607,"RA_OF_ASC_NODE":179.5954,"ARG_OF_PERICENTER":108.186,"MEAN_ANOMALY":251.9299,"EPHEMERIS_TYPE":0,"CLASSIFICATION_TYPE":"U","NORAD_CAT_ID":59254,"ELEMENT_SET_NO":999,"REV_AT_EPOCH":11170,"BSTAR":0.00013770167,"MEAN_MOTION_DOT":3.722e-5,"MEAN_MOTION_DDOT":0},{"OBJECT_NAME":"THOR AGENA B DEB","OBJECT_ID":"1965-098G","EPOCH":"2026-03-09T23:22:06.853152","MEAN_MOTION":13.57256453,"ECCENTRICITY":0.07679635,"INCLINATION":79.6109,"RA_OF_ASC_NODE":51.0692,"ARG_OF_PERICENTER":143.4347,"MEAN_ANOMALY":222.1845,"EPHEMERIS_TYPE":0,"CLASSIFICATION_TYPE":"U","NORAD_CAT_ID":1951,"ELEMENT_SET_NO":999,"REV_AT_EPOCH":79416,"BSTAR":0.00077607754,"MEAN_MOTION_DOT":4.232e-5,"MEAN_MOTION_DDOT":0}]
